start=new Date('2022-04-21T00:00:00.000Z').valueOf();
sats=[{"TLE_LINE1":"1 45400U 20019AS  22110.47180260  .00005181  00000-0  36629-3 0  9993","DECAY_DATE":null,"REF_FRAME":"TEME","APOAPSIS":"548.283","MEAN_MOTION":"15.06415961","OBJECT_TYPE":"PAYLOAD","LAUNCH_DATE":"2020-03-18","CENTER_NAME":"EARTH","COUNTRY_CODE":"US","PERIAPSIS":"546.046","CLASSIFICATION_TYPE":"U","TLE_LINE2":"2 45400  53.0542  27.7372 0001615  51.4520 308.6613 15.06415961115970","OBJECT_NAME":"STARLINK-1213","MEAN_ELEMENT_THEORY":"SGP4","MEAN_MOTION_DDOT":"0.0000000000000","EPOCH":"2022-04-20T11:19:23.744640","TIME_SYSTEM":"UTC","ELEMENT_SET_NO":"999","GP_ID":"201678597","SEMIMAJOR_AXIS":"6925.300","OBJECT_ID":"2020-019AS","MEAN_MOTION_DOT":"0.00005181","SITE":"AFETR","RCS_SIZE":"LARGE","MEAN_ANOMALY":"308.6613","RA_OF_ASC_NODE":"27.7372","INCLINATION":"53.0542","REV_AT_EPOCH":"11597","ARG_OF_PERICENTER":"51.4520","PERIOD":"95.591","FILE":"3409639","NORAD_CAT_ID":"45400","EPHEMERIS_TYPE":"0","BSTAR":"0.00036629000000","ECCENTRICITY":"0.00016150"},{"REF_FRAME":"TEME","APOAPSIS":"548.342","DECAY_DATE":null,"TLE_LINE1":"1 45401U 20019AT  22110.46811795  .00001842  00000-0  14252-3 0  9995","CENTER_NAME":"EARTH","LAUNCH_DATE":"2020-03-18","OBJECT_TYPE":"PAYLOAD","MEAN_MOTION":"15.06401061","MEAN_ELEMENT_THEORY":"SGP4","TLE_LINE2":"2 45401  53.0559  27.7548 0001634  62.4344 297.6810 15.06401061116042","OBJECT_NAME":"STARLINK-1256","PERIAPSIS":"546.079","COUNTRY_CODE":"US","CLASSIFICATION_TYPE":"U","ELEMENT_SET_NO":"999","EPOCH":"2022-04-20T11:14:05.390880","TIME_SYSTEM":"UTC","MEAN_MOTION_DDOT":"0.0000000000000","RCS_SIZE":"LARGE","SITE":"AFETR","MEAN_MOTION_DOT":"0.00001842","OBJECT_ID":"2020-019AT","SEMIMAJOR_AXIS":"6925.345","GP_ID":"201679848","ARG_OF_PERICENTER":"62.4344","REV_AT_EPOCH":"11604","INCLINATION":"53.0559","MEAN_ANOMALY":"297.6810","RA_OF_ASC_NODE":"27.7548","EPHEMERIS_TYPE":"0","NORAD_CAT_ID":"45401","FILE":"3409639","PERIOD":"95.592","ECCENTRICITY":"0.00016340","BSTAR":"0.00014252000000"},{"GP_ID":"201680098","MEAN_MOTION_DOT":"0.00007522","SITE":"AFETR","RCS_SIZE":"LARGE","OBJECT_ID":"2020-019AU","SEMIMAJOR_AXIS":"6925.309","MEAN_ANOMALY":"280.9626","RA_OF_ASC_NODE":"27.7629","INCLINATION":"53.0558","REV_AT_EPOCH":"11605","ARG_OF_PERICENTER":"79.1512","NORAD_CAT_ID":"45402","FILE":"3409639","PERIOD":"95.591","EPHEMERIS_TYPE":"0","BSTAR":"0.00052316000000","ECCENTRICITY":"0.00013270","TLE_LINE1":"1 45402U 20019AU  22110.46443041  .00007522  00000-0  52316-3 0  9995","DECAY_DATE":null,"APOAPSIS":"548.093","REF_FRAME":"TEME","MEAN_MOTION":"15.06413012","LAUNCH_DATE":"2020-03-18","CENTER_NAME":"EARTH","OBJECT_TYPE":"PAYLOAD","TLE_LINE2":"2 45402  53.0558  27.7629 0001327  79.1512 280.9626 15.06413012116053","OBJECT_NAME":"STARLINK-1257","COUNTRY_CODE":"US","PERIAPSIS":"546.255","CLASSIFICATION_TYPE":"U","MEAN_ELEMENT_THEORY":"SGP4","MEAN_MOTION_DDOT":"0.0000000000000","TIME_SYSTEM":"UTC","EPOCH":"2022-04-20T11:08:46.787424","ELEMENT_SET_NO":"999"},{"PERIOD":"95.593","FILE":"3409979","NORAD_CAT_ID":"45403","EPHEMERIS_TYPE":"0","BSTAR":"0.00003789500000","ECCENTRICITY":"0.00016070","GP_ID":"201711239","OBJECT_ID":"2020-019AV","SEMIMAJOR_AXIS":"6925.387","SITE":"AFETR","RCS_SIZE":"LARGE","MEAN_MOTION_DOT":"0.00000283","MEAN_ANOMALY":"291.5991","RA_OF_ASC_NODE":"25.9269","INCLINATION":"53.0550","REV_AT_EPOCH":"11610","ARG_OF_PERICENTER":"68.5170","COUNTRY_CODE":"US","CLASSIFICATION_TYPE":"U","PERIAPSIS":"546.139","OBJECT_NAME":"STARLINK-1259","TLE_LINE2":"2 45403  53.0550  25.9269 0001607  68.5170 291.5991 15.06387564116100","MEAN_ELEMENT_THEORY":"SGP4","MEAN_MOTION_DDOT":"0.0000000000000","EPOCH":"2022-04-20T21:03:15.654528","TIME_SYSTEM":"UTC","ELEMENT_SET_NO":"999","TLE_LINE1":"1 45403U 20019AV  22110.87726452  .00000283  00000-0  37895-4 0  9994","DECAY_DATE":null,"REF_FRAME":"TEME","APOAPSIS":"548.365","MEAN_MOTION":"15.06387564","OBJECT_TYPE":"PAYLOAD","LAUNCH_DATE":"2020-03-18","CENTER_NAME":"EARTH"},{"FILE":"3409979","PERIOD":"95.592","NORAD_CAT_ID":"45404","EPHEMERIS_TYPE":"0","BSTAR":"0.00001948300000","ECCENTRICITY":"0.00015680","GP_ID":"201712491","OBJECT_ID":"2020-019AW","SEMIMAJOR_AXIS":"6925.326","RCS_SIZE":"LARGE","SITE":"AFETR","MEAN_MOTION_DOT":"0.00000009","MEAN_ANOMALY":"295.2366","RA_OF_ASC_NODE":"25.8589","INCLINATION":"53.0570","REV_AT_EPOCH":"11601","ARG_OF_PERICENTER":"64.8785","CLASSIFICATION_TYPE":"U","COUNTRY_CODE":"US","PERIAPSIS":"546.105","OBJECT_NAME":"STARLINK-1260","TLE_LINE2":"2 45404  53.0570  25.8589 0001568  64.8785 295.2366 15.06407370116019","MEAN_ELEMENT_THEORY":"SGP4","MEAN_MOTION_DDOT":"0.0000000000000","EPOCH":"2022-04-20T21:19:10.249248","TIME_SYSTEM":"UTC","ELEMENT_SET_NO":"999","TLE_LINE1":"1 45404U 20019AW  22110.88831307  .00000009  00000-0  19483-4 0  9991","DECAY_DATE":null,"APOAPSIS":"548.277","REF_FRAME":"TEME","MEAN_MOTION":"15.06407370","OBJECT_TYPE":"PAYLOAD","LAUNCH_DATE":"2020-03-18","CENTER_NAME":"EARTH"},{"NORAD_CAT_ID":"45405","FILE":"3409979","PERIOD":"95.592","EPHEMERIS_TYPE":"0","BSTAR":"0.00011500000000","ECCENTRICITY":"0.00014920","GP_ID":"201712241","RCS_SIZE":"LARGE","SITE":"AFETR","MEAN_MOTION_DOT":"0.00001432","SEMIMAJOR_AXIS":"6925.339","OBJECT_ID":"2020-019AX","MEAN_ANOMALY":"287.1949","RA_OF_ASC_NODE":"25.9248","INCLINATION":"53.0567","REV_AT_EPOCH":"11601","ARG_OF_PERICENTER":"72.9203","OBJECT_NAME":"STARLINK-1263","TLE_LINE2":"2 45405  53.0567  25.9248 0001492  72.9203 287.1949 15.06403093116015","CLASSIFICATION_TYPE":"U","COUNTRY_CODE":"US","PERIAPSIS":"546.171","MEAN_ELEMENT_THEORY":"SGP4","MEAN_MOTION_DDOT":"0.0000000000000","EPOCH":"2022-04-20T20:57:55.944288","TIME_SYSTEM":"UTC","ELEMENT_SET_NO":"999","TLE_LINE1":"1 45405U 20019AX  22110.87356417  .00001432  00000-0  11500-3 0  9997","DECAY_DATE":null,"REF_FRAME":"TEME","APOAPSIS":"548.237","MEAN_MOTION":"15.06403093","LAUNCH_DATE":"2020-03-18","CENTER_NAME":"EARTH","OBJECT_TYPE":"PAYLOAD"},{"BSTAR":"0.00038153000000","ECCENTRICITY":"0.00017450","FILE":"3409639","PERIOD":"95.594","NORAD_CAT_ID":"45406","EPHEMERIS_TYPE":"0","INCLINATION":"53.0560","MEAN_ANOMALY":"299.8965","RA_OF_ASC_NODE":"27.6734","ARG_OF_PERICENTER":"60.2197","REV_AT_EPOCH":"11595","GP_ID":"201679599","SEMIMAJOR_AXIS":"6925.439","OBJECT_ID":"2020-019AY","RCS_SIZE":"LARGE","SITE":"AFETR","MEAN_MOTION_DOT":"0.00005401","MEAN_MOTION_DDOT":"0.0000000000000","ELEMENT_SET_NO":"999","EPOCH":"2022-04-20T11:35:20.164128","TIME_SYSTEM":"UTC","CLASSIFICATION_TYPE":"U","COUNTRY_CODE":"US","PERIAPSIS":"546.095","TLE_LINE2":"2 45406  53.0560  27.6734 0001745  60.2197 299.8965 15.06370615115954","OBJECT_NAME":"STARLINK-1265","MEAN_ELEMENT_THEORY":"SGP4","MEAN_MOTION":"15.06370615","OBJECT_TYPE":"PAYLOAD","CENTER_NAME":"EARTH","LAUNCH_DATE":"2020-03-18","TLE_LINE1":"1 45406U 20019AY  22110.48287227  .00005401  00000-0  38153-3 0  9990","REF_FRAME":"TEME","APOAPSIS":"548.512","DECAY_DATE":null},{"MEAN_MOTION":"15.06442912","OBJECT_TYPE":"PAYLOAD","CENTER_NAME":"EARTH","LAUNCH_DATE":"2020-03-18","TLE_LINE1":"1 45407U 20019AZ  22110.49664559  .00012621  00000-0  86370-3 0  9995","APOAPSIS":"547.723","REF_FRAME":"TEME","DECAY_DATE":null,"MEAN_MOTION_DDOT":"0.0000000000000","ELEMENT_SET_NO":"999","EPOCH":"2022-04-20T11:55:10.178976","TIME_SYSTEM":"UTC","CLASSIFICATION_TYPE":"U","COUNTRY_CODE":"US","PERIAPSIS":"546.441","TLE_LINE2":"2 45407  53.0564  27.6247 0000926  69.2213 290.8875 15.06442912115957","OBJECT_NAME":"STARLINK-1275","MEAN_ELEMENT_THEORY":"SGP4","INCLINATION":"53.0564","MEAN_ANOMALY":"290.8875","RA_OF_ASC_NODE":"27.6247","ARG_OF_PERICENTER":"69.2213","REV_AT_EPOCH":"11595","GP_ID":"201678348","OBJECT_ID":"2020-019AZ","SEMIMAJOR_AXIS":"6925.217","RCS_SIZE":"LARGE","SITE":"AFETR","MEAN_MOTION_DOT":"0.00012621","BSTAR":"0.00086370000000","ECCENTRICITY":"0.00009260","FILE":"3409639","PERIOD":"95.589","NORAD_CAT_ID":"45407","EPHEMERIS_TYPE":"0"},{"LAUNCH_DATE":"2020-03-18","CENTER_NAME":"EARTH","OBJECT_TYPE":"PAYLOAD","MEAN_MOTION":"15.06397727","DECAY_DATE":null,"REF_FRAME":"TEME","APOAPSIS":"548.507","TLE_LINE1":"1 45408U 20019BA  22110.84132415 -.00001395  00000-0 -74779-4 0  9995","EPOCH":"2022-04-20T20:11:30.406560","TIME_SYSTEM":"UTC","ELEMENT_SET_NO":"999","MEAN_MOTION_DDOT":"0.0000000000000","MEAN_ELEMENT_THEORY":"SGP4","TLE_LINE2":"2 45408  53.0541  56.0628 0001857  49.4086 310.7065 15.06397727115590","OBJECT_NAME":"STARLINK-1278","COUNTRY_CODE":"US","CLASSIFICATION_TYPE":"U","PERIAPSIS":"545.934","REV_AT_EPOCH":"11559","ARG_OF_PERICENTER":"49.4086","MEAN_ANOMALY":"310.7065","RA_OF_ASC_NODE":"56.0628","INCLINATION":"53.0541","MEAN_MOTION_DOT":"-0.00001395","SITE":"AFETR","RCS_SIZE":"LARGE","OBJECT_ID":"2020-019BA","SEMIMAJOR_AXIS":"6925.356","GP_ID":"201711991","ECCENTRICITY":"0.00018570","BSTAR":"-0.00007477900000","EPHEMERIS_TYPE":"0","NORAD_CAT_ID":"45408","FILE":"3409979","PERIOD":"95.592"},{"MEAN_MOTION":"15.06395586","OBJECT_TYPE":"PAYLOAD","CENTER_NAME":"EARTH","LAUNCH_DATE":"2020-03-18","TLE_LINE1":"1 45409U 20019BB  22110.50497320  .00000605  00000-0  59553-4 0  9992","APOAPSIS":"548.368","REF_FRAME":"TEME","DECAY_DATE":null,"MEAN_MOTION_DDOT":"0.0000000000000","ELEMENT_SET_NO":"999","TIME_SYSTEM":"UTC","EPOCH":"2022-04-20T12:07:09.684480","COUNTRY_CODE":"US","PERIAPSIS":"546.086","CLASSIFICATION_TYPE":"U","TLE_LINE2":"2 45409  53.0547  27.5741 0001647  68.5544 291.5621 15.06395586115960","OBJECT_NAME":"STARLINK-1282","MEAN_ELEMENT_THEORY":"SGP4","INCLINATION":"53.0547","RA_OF_ASC_NODE":"27.5741","MEAN_ANOMALY":"291.5621","ARG_OF_PERICENTER":"68.5544","REV_AT_EPOCH":"11596","GP_ID":"201679849","SEMIMAJOR_AXIS":"6925.362","OBJECT_ID":"2020-019BB","SITE":"AFETR","MEAN_MOTION_DOT":"0.00000605","RCS_SIZE":"LARGE","BSTAR":"0.00005955300000","ECCENTRICITY":"0.00016470","FILE":"3409639","PERIOD":"95.592","NORAD_CAT_ID":"45409","EPHEMERIS_TYPE":"0"}];
